{"fetched_at":"2026-03-29T16:36:15Z","count":15609,"tles":[{"name":"STARLINK-34247","line1":"1 65083U 25167F   26087.94788839  .00021836  00000+0  74730-3 0  9995","line2":"2 65083  53.1590 294.7537 0001051  85.9900 274.1221 15.30195585 36462","category":"Starlink"}]}