{
  "norad_id": 65083,
  "name": "STARLINK-34247",
  "history": [
    {
      "epoch": "2026-03-28T22:44:57.556896Z",
      "apogee_km": 475.94854053317977,
      "perigee_km": 474.50796315724165,
      "latitude_deg": 1.3437699978716937e-05,
      "longitude_deg": 127.15287223712261,
      "height_km": 476.0761468741229,
      "semi_major_axis_km": 6853.36525184521,
      "eccentricity": 0.0001051,
      "inclination_deg": 53.159,
      "raan_deg": 294.7537,
      "arg_perigee_deg": 85.99,
      "mean_anomaly_deg": 274.1221,
      "mean_motion_rev_day": 15.30195585
    }
  ]
}